{
    "links": {
        "self": "http://www.neowsapp.com/rest/v1/neo/3766117?api_key=iIulBulltgU6a56xZRHN4H3l9WmuAYTsLGpBGhQ2"
    },
    "id": "3766117",
    "neo_reference_id": "3766117",
    "name": "(2016 YH3)",
    "designation": "2016 YH3",
    "nasa_jpl_url": "http://ssd.jpl.nasa.gov/sbdb.cgi?sstr=3766117",
    "absolute_magnitude_h": 24.5,
    "estimated_diameter": {
        "kilometers": {
            "estimated_diameter_min": 0.0334622374,
            "estimated_diameter_max": 0.0748238376
        },
        "meters": {
            "estimated_diameter_min": 33.4622374455,
            "estimated_diameter_max": 74.8238376074
        },
        "miles": {
            "estimated_diameter_min": 0.0207924639,
            "estimated_diameter_max": 0.0464933628
        },
        "feet": {
            "estimated_diameter_min": 109.7842471007,
            "estimated_diameter_max": 245.4850393757
        }
    },
    "is_potentially_hazardous_asteroid": false,
    "close_approach_data": [
        {
            "close_approach_date": "1917-12-06",
            "close_approach_date_full": "1917-Dec-06 18:41",
            "epoch_date_close_approach": -1643174340000,
            "relative_velocity": {
                "kilometers_per_second": "26.1902903359",
                "kilometers_per_hour": "94285.0452093808",
                "miles_per_hour": "58585.0604524622"
            },
            "miss_distance": {
                "astronomical": "0.3837122287",
                "lunar": "149.2640569643",
                "kilometers": "57402532.106472869",
                "miles": "35668279.4908648322"
            },
            "orbiting_body": "Earth"
        },
        {
            "close_approach_date": "2016-12-31",
            "close_approach_date_full": "2016-Dec-31 09:00",
            "epoch_date_close_approach": 1483174800000,
            "relative_velocity": {
                "kilometers_per_second": "14.5838019231",
                "kilometers_per_hour": "52501.6869231175",
                "miles_per_hour": "32622.506521756"
            },
            "miss_distance": {
                "astronomical": "0.037382962",
                "lunar": "14.541972218",
                "kilometers": "5592411.48949094",
                "miles": "3474963.363377372"
            },
            "orbiting_body": "Earth"
        }
    ],
    "orbital_data": {
        "orbit_id": "3",
        "orbit_determination_date": "2017-04-06 08:21:22",
        "first_observation_date": "2016-12-23",
        "last_observation_date": "2016-12-29",
        "data_arc_in_days": 6,
        "observations_used": 17,
        "orbit_uncertainty": "8",
        "minimum_orbit_intersection": ".0373002",
        "jupiter_tisserand_invariant": "3.719",
        "epoch_osculation": "2457746.5",
        "eccentricity": ".5900830482229337",
        "semi_major_axis": "1.894648322755704",
        "inclination": "3.628237052798177",
        "ascending_node_longitude": "136.1446625412665",
        "orbital_period": "952.5578085208789",
        "perihelion_distance": ".7766484651535497",
        "perihelion_argument": "27.02895616796896",
        "aphelion_distance": "3.012648180357859",
        "perihelion_time": "2457795.005770642744",
        "mean_anomaly": "341.6682228887476",
        "mean_motion": ".3779298188306324",
        "equinox": "J2000",
        "orbit_class": {
            "orbit_class_type": "APO",
            "orbit_class_description": "Near-Earth asteroid orbits which cross the Earth’s orbit similar to that of 1862 Apollo",
            "orbit_class_range": "a (semi-major axis) > 1.0 AU; q (perihelion) < 1.017 AU"
        }
    },
    "is_sentry_object": false
}